[{"OBJECT_NAME":"HAWK-2A","OBJECT_ID":"2021-006CW","EPOCH":"2026-03-09T16:18:25.817472","MEAN_MOTION":15.33304498,"ECCENTRICITY":0.00064498,"INCLINATION":97.2459,"RA_OF_ASC_NODE":115.6184,"ARG_OF_PERICENTER":187.1463,"MEAN_ANOMALY":172.9689,"EPHEMERIS_TYPE":0,"CLASSIFICATION_TYPE":"U","NORAD_CAT_ID":47505,"ELEMENT_SET_NO":999,"REV_AT_EPOCH":28424,"BSTAR":0.0002543136,"MEAN_MOTION_DOT":8.113e-5,"MEAN_MOTION_DDOT":0},{"OBJECT_NAME":"STARLINK-35681","OBJECT_ID":"2025-257R","EPOCH":"2026-03-09T20:59:54.384000","MEAN_MOTION":15.30207482,"ECCENTRICITY":0.00010462,"INCLINATION":53.1594,"RA_OF_ASC_NODE":216.0335,"ARG_OF_PERICENTER":69.6363,"MEAN_ANOMALY":290.475,"EPHEMERIS_TYPE":0,"CLASSIFICATION_TYPE":"U","NORAD_CAT_ID":66395,"ELEMENT_SET_NO":999,"REV_AT_EPOCH":1968,"BSTAR":0.0010242076,"MEAN_MOTION_DOT":0.00030105,"MEAN_MOTION_DDOT":0}]
